ONEWEB-0271             
1 48989U 21060Y   26023.92860457  .00000736  00000+0  18910-2 0  9997
2 48989  87.9019 257.4933 0001296  77.8953 282.2323 13.16600534220683
ONEWEB-0272             
1 48990U 21060Z   26023.87477534  .00000065  00000+0  13538-3 0  9990
2 48990  87.9015 257.5167 0001439  71.6786 288.4502 13.16595883220627
ONEWEB-0273             
1 48991U 21060AA  26023.89694575 -.00000104  00000+0 -30649-3 0  9997
2 48991  87.9020 257.5096 0001271  81.1099 279.0176 13.16596313220602
ONEWEB-0274             
1 48992U 21060AB  26023.92227514  .00000046  00000+0  85684-4 0  9990
2 48992  87.9005 257.5229 0001610  69.3950 290.7354 13.16595959220642
ONEWEB-0275             
1 48993U 21060AC  26023.91118897 -.00000075  00000+0 -22931-3 0  9992
2 48993  87.9017 257.4998 0001432  77.9997 282.1294 13.16595878220576
ONEWEB-0276             
1 48994U 21060AD  26023.64045769  .00000069  00000+0  14655-3 0  9995
2 48994  87.9020 257.5535 0001349  85.9927 274.1358 13.16595422220553
ONEWEB-0277             
1 48995U 21060AE  26023.88112052 -.00000019  00000+0 -82803-4 0  9990
2 48995  87.9010 257.5255 0001310  81.4597 278.6683 13.16593642220578
ONEWEB-0278             
1 48996U 21060AF  26023.64362069  .00000068  00000+0  14481-3 0  9998
2 48996  87.9017 257.5494 0001607  87.6658 272.4657 13.16596446220675
ONEWEB-0279             
1 48997U 21060AG  26023.65153050  .00000030  00000+0  44671-4 0  9992
2 48997  87.9021 257.5464 0001339  71.0247 289.1029 13.16597029220600
ONEWEB-0280             
1 48998U 21060AH  26023.89457073 -.00000019  00000+0 -83823-4 0  9992
2 48998  87.9024 257.5035 0001295  94.9224 265.2055 13.16594731220575
ONEWEB-0281             
1 48999U 21060AJ  26023.59612536 -.00000019  00000+0 -83640-4 0  9994
2 48999  87.9018 257.5581 0001556  77.6518 282.4787 13.16595997220601
ONEWEB-0282             
1 49000U 21060AK  26023.93019253  .00000043  00000+0  78508-4 0  9995
2 49000  87.9015 257.5022 0001301  83.0949 277.0330 13.16594991220628
ONEWEB-0283             
1 49001U 21060AL  26023.61511819  .00000006  00000+0 -18547-4 0  9993
2 49001  87.9015 257.5650 0001343  76.8301 283.2980 13.16596057220595
ONEWEB-0284             
1 49002U 21060AM  26023.91277890  .00000000  00000+0 -34117-4 0  9990
2 49002  87.9018 257.4960 0001451  96.5615 263.5681 13.16595854220615
ONEWEB-0285             
1 49075U 21075A   26023.74261641  .00000573  00000+0  15573-2 0  9991
2 49075  87.8936  19.3352 0001732  88.2042 271.9284 13.12441994216266
ONEWEB-0286             
1 49076U 21075B   26023.95409780  .00000173  00000+0  44584-3 0  9994
2 49076  87.8931  19.3237 0001988  86.2283 273.9073 13.12444688215644
ONEWEB-0287             
1 49077U 21075C   26023.96388423  .00000056  00000+0  11026-3 0  9991
2 49077  87.9090  34.5275 0002281  92.7585 267.3807 13.17648942214631
ONEWEB-0288             
1 49078U 21075D   26023.93050589 -.00000335  00000+0 -96580-3 0  9998
2 49078  87.8932  19.2929 0001845  90.6552 269.4788 13.12441867216262
ONEWEB-0289             
1 49079U 21075E   26023.77473011  .00000047  00000+0  88395-4 0  9994
2 49079  87.9091  34.5775 0001656 104.2982 255.8333 13.17648721215186
ONEWEB-0290             
1 49080U 21075F   26023.97568109  .00000076  00000+0  16206-3 0  9994
2 49080  87.9095  34.5026 0001414 105.9442 254.1845 13.17650811214623
ONEWEB-0291             
1 49081U 21075G   26023.96048785  .00000069  00000+0  14468-3 0  9997
2 49081  87.9097  34.5136 0002081 100.0884 260.0483 13.17651351214618
ONEWEB-0293             
1 49082U 21075H   26023.75799222  .00000032  00000+0  47959-4 0  9996
2 49082  87.9083  34.5698 0001762  95.6880 264.4452 13.17650367214617
ONEWEB-0294             
1 49083U 21075J   26023.93727454 -.00000526  00000+0 -14978-2 0  9998
2 49083  87.8940  19.2938 0001656  98.0523 262.0794 13.12443344215657
ONEWEB-0295             
1 49084U 21075K   26023.98495839  .00000764  00000+0  19351-2 0  9995
2 49084  87.9081  34.5290 0002138  95.9581 264.1794 13.17643186214600
ONEWEB-0296             
1 49085U 21075L   26023.68824159 -.00000118  00000+0 -36438-3 0  9995
2 49085  87.8933  19.3464 0002037  96.2053 263.9308 13.12440640215622
ONEWEB-0297             
1 49086U 21075M   26023.94744819 -.00000069  00000+0 -22603-3 0  9993
2 49086  87.8929  19.3238 0001885  88.7743 271.3602 13.12445859216267
ONEWEB-0298             
1 49087U 21075N   26023.45775496  .00000054  00000+0  10685-3 0  9994
2 49087  87.9082  34.6308 0001936  87.1080 273.0274 13.17646625214565
ONEWEB-0299             
1 49088U 21075P   26023.45930737  .00000036  00000+0  58537-4 0  9995
2 49088  87.9095  34.5965 0002012  92.7034 267.4328 13.17650803214543
ONEWEB-0300             
1 49089U 21075Q   26023.93982933 -.00000265  00000+0 -77138-3 0  9997
2 49089  87.8936  19.2893 0001937  76.9570 283.1775 13.12445560216282
ONEWEB-0301             
1 49090U 21075R   26023.92372481 -.00000263  00000+0 -76509-3 0  9998
2 49090  87.8934  19.2935 0001847  75.9481 284.1853 13.12440895215642
ONEWEB-0302             
1 49091U 21075S   26023.68147477  .00000134  00000+0  33582-3 0  9996
2 49091  87.8935  19.3502 0001772  99.3846 260.7483 13.12442776215590
ONEWEB-0304             
1 49092U 21075T   26023.73775248  .00000085  00000+0  18600-3 0  9995
2 49092  87.9093  34.5716 0001952  93.4552 266.6803 13.17649569214552
ONEWEB-0305             
1 49093U 21075U   26023.95881309  .00000104  00000+0  23510-3 0  9994
2 49093  87.9096  34.5055 0002245  93.9452 266.1936 13.17650745214619
ONEWEB-0308             
1 49094U 21075V   26023.67469553  .00000321  00000+0  85561-3 0  9992
2 49094  87.8937  19.3448 0001759  87.1444 272.9886 13.12440371215601
ONEWEB-0309             
1 49095U 21075W   26023.96217606  .00000102  00000+0  23004-3 0  9996
2 49095  87.9096  34.5200 0001762 104.7919 255.3408 13.17651298214589
ONEWEB-0310             
1 49096U 21075X   26023.68993248 -.00000147  00000+0 -44404-3 0  9997
2 49096  87.8928  19.3755 0001753  88.0862 272.0468 13.12440837216236
ONEWEB-0311             
1 49097U 21075Y   26023.51332172  .00000043  00000+0  77803-4 0  9996
2 49097  87.9091  34.6044 0002196  90.5881 269.5502 13.17648884214573
ONEWEB-0312             
1 49098U 21075Z   26023.98411286  .00000041  00000+0  71940-4 0  9996
2 49098  87.9084  34.5327 0002078  99.3757 260.7609 13.17650920214617
ONEWEB-0313             
1 49099U 21075AA  26023.45748962  .00000071  00000+0  15051-3 0  9996
2 49099  87.9082  34.6444 0001969  91.8315 268.3042 13.17650436214530
ONEWEB-0314             
1 49100U 21075AB  26023.95542593  .00000079  00000+0  17079-3 0  9996
2 49100  87.9096  34.5033 0002148  99.1200 261.0175 13.17651685214573
ONEWEB-0315             
1 49101U 21075AC  26023.96779846  .00000426  00000+0  11493-2 0  9990
2 49101  87.8938  19.2722 0002151  83.3471 276.7903 13.12443804216258
ONEWEB-0316             
1 49102U 21075AD  26023.69003095 -.00000097  00000+0 -27831-3 0  9997
2 49102  87.9191   4.1531 0001948  83.9822 276.1532 13.18685107218165
ONEWEB-0317             
1 49103U 21075AE  26023.97116804  .00000436  00000+0  11758-2 0  9997
2 49103  87.8937  19.2934 0001128 105.0180 255.1074 13.12444309216279
ONEWEB-0318             
1 49104U 21075AF  26023.91435906  .00000057  00000+0  11256-3 0  9992
2 49104  87.9197   4.0970 0002121  84.3843 275.7532 13.18685938218157
ONEWEB-0319             
1 49105U 21075AG  26023.97062079  .00000106  00000+0  24058-3 0  9995
2 49105  87.9084  34.5296 0002345  83.9065 276.2334 13.17648775214611
ONEWEB-0323             
1 49106U 21075AH  26023.95253720  .00000104  00000+0  25480-3 0  9997
2 49106  87.8937  19.2797 0002460  88.3809 271.7601 13.12445430215635
ONEWEB-0329             
1 49107U 21075AJ  26023.97906113  .00000064  00000+0  13237-3 0  9993
2 49107  87.9083  34.5288 0001958  93.6471 266.4885 13.17650509214598
ONEWEB-0330             
1 49108U 21075AK  26023.97990150  .00000056  00000+0  11179-3 0  9992
2 49108  87.9084  34.5356 0001857  97.9262 262.2080 13.17650192214633
ONEWEB-0292             
1 49186U 21083A   26023.42813647  .00000048  00000+0  95625-4 0  9992
2 49186  87.9007 349.0239 0001976  80.4911 279.6441 13.13471616211928
ONEWEB-0303             
1 49187U 21083B   26023.68342809  .00000014  00000+0  28576-5 0  9993
2 49187  87.9200   4.1449 0001990  84.2515 275.8844 13.18685981210936
ONEWEB-0306             
1 49188U 21083C   26023.67352925 -.00000018  00000+0 -77319-4 0  9997
2 49188  87.9199   4.1307 0001611  86.8030 273.3287 13.18686311210973
ONEWEB-0307             
1 49189U 21083D   26023.42221092  .00000327  00000+0  85977-3 0  9990
2 49189  87.9001 349.0149 0001813  82.4835 277.6501 13.13469889211926
ONEWEB-0320             
1 49190U 21083E   26023.68095829  .00000075  00000+0  15654-3 0  9992
2 49190  87.9191   4.1560 0001852  86.9869 273.1475 13.18686800210933
ONEWEB-0321             
1 49191U 21083F   26023.73273464  .00000090  00000+0  18887-3 0  9990
2 49191  87.9232 303.2572 0001387  77.5009 282.6280 13.20772500217764
ONEWEB-0322             
1 49192U 21083G   26023.87504272  .00000288  00000+0  75272-3 0  9990
2 49192  87.9001 348.9286 0001363  73.9823 286.1456 13.13471215211977
ONEWEB-0324             
1 49193U 21083H   26023.43930384  .00000096  00000+0  21123-3 0  9993
2 49193  87.9196   4.1835 0001856  89.9149 270.2196 13.18685835210928
ONEWEB-0325             
1 49194U 21083J   26023.67021991  .00000032  00000+0  48017-4 0  9997
2 49194  87.9196   4.1573 0001791  82.8610 277.2726 13.18686282210968
ONEWEB-0326             
1 49195U 21083K   26023.91285018 -.00000013  00000+0 -66170-4 0  9998
2 49195  87.9199   4.0960 0002114  81.0121 279.1251 13.18686083210984
ONEWEB-0327             
1 49196U 21083L   26023.91257558  .00000015  00000+0  63548-5 0  9994
2 49196  87.9190   4.1120 0002098  77.8431 282.2936 13.18686080211009
